KAZSTSAT
1 43783U 18099AB  19144.21420889  .00000331  00000-0  36718-4 0  9991
2 43783  97.7597 216.4257 0009875  49.8278 310.3805 14.93601660 25581
